[{"OBJECT_NAME":"STARLINK-2232","OBJECT_ID":"2021-041AB","EPOCH":"2026-03-09T19:12:32.089824","MEAN_MOTION":15.30210888,"ECCENTRICITY":0.00013627,"INCLINATION":53.1585,"RA_OF_ASC_NODE":126.189,"ARG_OF_PERICENTER":96.9551,"MEAN_ANOMALY":263.1605,"EPHEMERIS_TYPE":0,"CLASSIFICATION_TYPE":"U","NORAD_CAT_ID":48578,"ELEMENT_SET_NO":999,"REV_AT_EPOCH":26529,"BSTAR":0.00053127328,"MEAN_MOTION_DOT":0.00015414,"MEAN_MOTION_DDOT":0},{"OBJECT_NAME":"OBJECT B","OBJECT_ID":"2024-205B","EPOCH":"2026-03-09T23:46:05.115936","MEAN_MOTION":15.28158697,"ECCENTRICITY":0.00105957,"INCLINATION":97.4192,"RA_OF_ASC_NODE":146.9311,"ARG_OF_PERICENTER":34.0947,"MEAN_ANOMALY":326.0972,"EPHEMERIS_TYPE":0,"CLASSIFICATION_TYPE":"U","NORAD_CAT_ID":61895,"ELEMENT_SET_NO":999,"REV_AT_EPOCH":7352,"BSTAR":0.00054154807,"MEAN_MOTION_DOT":0.00014827,"MEAN_MOTION_DDOT":0}]
